{
  "norad_id": 64713,
  "name": "STARLINK-34583",
  "history": [
    {
      "epoch": "2026-03-28T19:52:54.001920Z",
      "apogee_km": 573.4769834743565,
      "perigee_km": 570.4357616163988,
      "latitude_deg": 5.0600352599131706e-05,
      "longitude_deg": 141.85386335918804,
      "height_km": 574.4322943923559,
      "semi_major_axis_km": 6950.093372545378,
      "eccentricity": 0.00021879,
      "inclination_deg": 70.0005,
      "raan_deg": 266.3221,
      "arg_perigee_deg": 268.1442,
      "mean_anomaly_deg": 91.9467,
      "mean_motion_rev_day": 14.98362182
    }
  ]
}