{"fetched_at":"2026-03-30T06:02:59Z","count":15439,"tles":[{"name":"STARLINK-34583","line1":"1 64713U 25142T   26087.82840280  .00013314  00000+0  11206-2 0  9993","line2":"2 64713  70.0005 266.3221 0002187 268.1442  91.9467 14.98362182 42323","category":"Starlink"}]}